ONEWEB-0538             
1 56047U 23043B   24076.44518479 -.00000046  00000+0 -15498-3 0  9996
2 56047  87.9110  32.5226 0001602  80.1257 280.0055 13.16594222 51621
ONEWEB-0546             
1 56048U 23043C   24076.43252203  .00000038  00000+0  66448-4 0  9997
2 56048  87.9113  32.4873 0002228 106.2681 253.8696 13.16594549 51618
ONEWEB-0547             
1 56049U 23043D   24076.42868200  .00000134  00000+0  29178-3 0  9992
2 56049  87.9253  47.7313 0001408  87.7987 272.3308 13.21827149 50440
ONEWEB-0548             
1 56050U 23043E   24075.92587775  .00000069  00000+0  14626-3 0  9992
2 56050  87.9108  32.6324 0002492  74.5152 285.6254 13.16593643 51540
ONEWEB-0549             
1 56051U 23043F   24075.89091891 -.00000012  00000+0 -61755-4 0  9994
2 56051  87.9252  47.8383 0001845  79.8281 280.3061 13.21826953 50373
ONEWEB-0550             
1 56052U 23043G   24075.95400385  .00000089  00000+0  18454-3 0  9993
2 56052  87.9248  47.8368 0002072  78.2916 281.8450 13.21827116 50384
ONEWEB-0551             
1 56053U 23043H   24076.51917872 -.00000019  00000+0 -85322-4 0  9995
2 56053  87.8971  62.9503 0001716  79.7783 280.3541 13.15548856 49149
ONEWEB-0552             
1 56054U 23043J   24076.47756808  .00000096  00000+0  20179-3 0  9992
2 56054  87.9249  47.7428 0002007  74.1804 285.9551 13.21828167 50454
